ONEWEB-0020             
1 45133U 20008C   25128.96232716  .00000513  00000+0  14339-2 0  9990
2 45133  87.8790 116.8531 0002186  92.0311 268.1067 13.10369922255407
ONEWEB-0021             
1 45134U 20008D   25128.51910567 -.00000349  00000+0 -10357-2 0  9994
2 45134  87.8795 116.9722 0001911  85.0568 275.0778 13.10369441255656
ONEWEB-0023             
1 45136U 20008F   25128.52988705 -.00000566  00000+0 -16583-2 0  9994
2 45136  87.8797 116.9553 0002271  85.3916 274.7470 13.10371974255842
ONEWEB-0024             
1 45137U 20008G   25128.50251623  .00000500  00000+0  13948-2 0  9993
2 45137  87.8783 116.9156 0001942  88.5506 271.5844 13.10371886255247
ONEWEB-0025             
1 45138U 20008H   25128.51993523 -.00000325  00000+0 -96798-3 0  9999
2 45138  87.8783 116.9131 0002082  73.5491 286.5865 13.10369899255570
ONEWEB-0026             
1 45139U 20008J   25128.48049329 -.00000394  00000+0 -11476-2 0  9997
2 45139  87.8811 101.7326 0002004  91.3661 268.7697 13.11414400258064
ONEWEB-0028             
1 45140U 20008K   25128.43800668  .00000335  00000+0  90893-3 0  9999
2 45140  87.8808 101.7677 0002124  72.2489 287.8871 13.11420887255575
ONEWEB-0032             
1 45141U 20008L   25128.45933939 -.00000716  00000+0 -20870-2 0  9992
2 45141  87.8790 116.9766 0002033  82.0174 278.1184 13.10374571255298
